KAZEOSAT 2              
1 40010U 14033A   26165.19881950  .00001029  00000+0  12511-3 0  9991
2 40010  97.5409   4.9693 0008169 340.4600  19.6302 14.85469394648511
HODOYOSHI-4             
1 40011U 14033B   26165.14274541  .00001851  00000+0  20591-3 0  9999
2 40011  97.5450 350.1126 0022688 319.1645  40.7871 14.88124313648359
DEIMOS-2                
1 40013U 14033D   26165.16866704  .00000885  00000+0  88743-4 0  9991
2 40013  97.5841  39.7641 0001729  48.9566 311.1804 14.93717441637275
HODOYOSHI-3             
1 40015U 14033F   26164.95155333  .00000985  00000+0  11942-3 0  9995
2 40015  97.6414 328.1224 0033001   7.9860 352.1874 14.85382759647146
SPOT 7                  
1 40053U 14034A   26165.16805846  .00000464  00000+0  10398-3 0  9999
2 40053  98.0635 227.7371 0001183  91.0680 269.0656 14.60956228636698
SKYSAT-B                
1 40072U 14037D   26165.16640352  .00001241  00000+0  14190-3 0  9990
2 40072  98.3838 123.9591 0004290 294.8427  65.2341 14.88020847645519
WORLDVIEW-3 (WV-3)      
1 40115U 14048A   26165.20262584  .00000762  00000+0  95544-4 0  9992
2 40115  97.8566 240.0766 0001221  29.8015 330.3269 14.85017594641461
GAOFEN-2                
1 40118U 14049A   26165.20336984  .00000711  00000+0  98965-4 0  9996
2 40118  98.0116 229.4129 0006041 238.2021 121.8603 14.80895729638796
YAOGAN-21               
1 40143U 14053A   26165.21250300  .00005743  00000+0  22352-3 0  9993
2 40143  97.1478 205.5758 0009996 102.1381 258.0979 15.26332772654509
YAOGAN-22               
1 40275U 14063A   26165.14364616 -.00000031  00000+0  41264-4 0  9998
2 40275 100.7720 316.3664 0006272 192.1229 167.9732 13.15530979559411
ASNARO                  
1 40298U 14070A   26165.19572777  .00006073  00000+0  28995-3 0  9991
2 40298  97.3462 241.3902 0005428 173.8996 186.2306 15.19394157643553
YAOGAN-24               
1 40310U 14072A   26165.16749737  .00000811  00000+0  12473-3 0  9995
2 40310  98.1478 302.4799 0012530 274.4463  85.5314 14.76220308623271
CBERS 4                 
1 40336U 14079A   26165.17943187  .00000030  00000+0  25109-4 0  9990
2 40336  98.3539 222.1052 0001904  66.8655 293.2732 14.35508064603529
YAOGAN-26               
1 40362U 14088A   26165.15867825  .00028490  00000+0  55967-3 0  9995
2 40362  97.0634 165.4387 0006203  73.9843 286.2091 15.47245974637232
SMAP                    
1 40376U 15003A   26165.13970728  .00000398  00000+0  86124-4 0  9990
2 40376  98.1276 172.2774 0001298  95.4639 264.6712 14.63364297607175
KOMPSAT-3A              
1 40536U 15014A   26165.21527304  .00024105  00000+0  35069-3 0  9990
2 40536  97.6880 156.3602 0056254 185.2886 174.7779 15.53869604621357
SENTINEL-2A             
1 40697U 15028A   26165.20769247 -.00000152  00000+0 -41298-4 0  9996
2 40697  98.5689 240.1014 0001096  91.2008 268.9300 14.30813743573301
GAOFEN-8                
1 40701U 15030A   26165.17494848  .00014944  00000+0  30934-3 0  9999
2 40701  97.6900 358.3644 0008476 197.4865 162.6093 15.45849083610981
CARBONITE 1 (CBNT-1)    
1 40718U 15032D   26165.21489677  .00001326  00000+0  16685-3 0  9995
2 40718  97.6501 343.4062 0013326 308.9253  51.0773 14.83579039588909
YAOGAN-27               
1 40878U 15040A   26165.21578833 -.00000097  00000+0 -14388-3 0  9998
2 40878 100.1146 151.7272 0007596 217.7841 142.2740 13.16070194517278
GAOFEN-9 01             
1 40894U 15047A   26165.22850583  .00000903  00000+0  11699-3 0  9995
2 40894  97.6275 201.0577 0028192 147.1895 213.1077 14.82878653579758
YAOGAN-28               
1 41026U 15064A   26165.17813709  .00006925  00000+0  26060-3 0  9993
2 41026  97.3067 303.5009 0010357 193.9730 166.1224 15.27388205590226
YAOGAN-29               
1 41038U 15069A   26165.20921484 -.00000215  00000+0 -19735-4 0  9995
2 41038  98.0031 193.8372 0002736  58.7945 301.3536 14.83081198570183
KENT RIDGE 1            
1 41167U 15077B   26164.69267216  .00004186  00000+0  14066-3 0  9995
2 41167  14.9789 291.9825 0008249 189.0994 170.9179 15.23112968580564
GAOFEN-4                
1 41194U 15083A   26165.10947455 -.00000326  00000+0  00000+0 0  9991
2 41194   0.3481  83.8704 0004366 114.2838 209.3813  1.00270299 38493
JASON-3                 
1 41240U 16002A   26165.20651600 -.00000067  00000+0 -20093-4 0  9992
2 41240  66.0400 132.1015 0008550 272.9278  87.0762 12.87627990486860
SENTINEL-3A             
1 41335U 16011A   26165.20097506  .00000104  00000+0  61016-4 0  9996
2 41335  98.6249 232.6274 0001386 102.6582 257.4753 14.26739233537631
ZIYUAN 3-02 (ZY 3-02)   
1 41556U 16033A   26165.16436586  .00005876  00000+0  26411-3 0  9995
2 41556  97.3842 240.9966 0011268 301.8734  58.1405 15.21456049557520
CARTOSAT-2C             
1 41599U 16040A   26165.16247613  .00004680  00000+0  22469-3 0  9992
2 41599  97.4494 225.1817 0010343 140.9262 219.2721 15.19297476553253
SKYSAT-C1               
1 41601U 16040C   26165.02473203  .00009530  00000+0  27170-3 0  9990
2 41601  96.9564 196.9158 0003722  64.6595 295.5035 15.36253137557384
LAPAN-A3                
1 41603U 16040E   26165.18874387  .00003307  00000+0  10564-3 0  9992
2 41603  97.1482 161.4328 0011230  35.8255 324.3739 15.33087188554354
