OBJECT_NAME,OBJECT_ID,EPOCH,MEAN_MOTION,ECCENTRICITY,INCLINATION,RA_OF_ASC_NODE,ARG_OF_PERICENTER,MEAN_ANOMALY,EPHEMERIS_TYPE,CLASSIFICATION_TYPE,NORAD_CAT_ID,ELEMENT_SET_NO,REV_AT_EPOCH,BSTAR,MEAN_MOTION_DOT,MEAN_MOTION_DDOT
KAZEOSAT 2,2014-033A,2026-06-14T04:46:18.004800,14.85469394,.0008169,97.5409,4.9693,340.4600,19.6302,0,U,40010,999,64851,.12511E-3,.1029E-4,0
HODOYOSHI-4,2014-033B,2026-06-14T03:25:33.203424,14.88124313,.0022688,97.5450,350.1126,319.1645,40.7871,0,U,40011,999,64835,.20591E-3,.1851E-4,0
DEIMOS-2,2014-033D,2026-06-14T04:02:52.832256,14.93717441,.0001729,97.5841,39.7641,48.9566,311.1804,0,U,40013,999,63727,.88743E-4,.885E-5,0
HODOYOSHI-3,2014-033F,2026-06-13T22:50:14.207712,14.85382759,.0033001,97.6414,328.1224,7.9860,352.1874,0,U,40015,999,64714,.11942E-3,.985E-5,0
SPOT 7,2014-034A,2026-06-14T04:02:00.250944,14.60956228,.0001183,98.0635,227.7371,91.0680,269.0656,0,U,40053,999,63669,.10398E-3,.464E-5,0
SKYSAT-B,2014-037D,2026-06-14T03:59:37.264128,14.88020847,.000429,98.3838,123.9591,294.8427,65.2341,0,U,40072,999,64551,.1419E-3,.1241E-4,0
WORLDVIEW-3 (WV-3),2014-048A,2026-06-14T04:51:46.872576,14.85017594,.0001221,97.8566,240.0766,29.8015,330.3269,0,U,40115,999,64146,.95544E-4,.762E-5,0
GAOFEN-2,2014-049A,2026-06-14T04:52:51.154176,14.80895729,.0006041,98.0116,229.4129,238.2021,121.8603,0,U,40118,999,63879,.98965E-4,.711E-5,0
YAOGAN-21,2014-053A,2026-06-14T05:06:00.259200,15.26332772,.0009996,97.1478,205.5758,102.1381,258.0979,0,U,40143,999,65450,.22352E-3,.5743E-4,0
YAOGAN-22,2014-063A,2026-06-14T03:26:51.028224,13.15530979,.0006272,100.7720,316.3664,192.1229,167.9732,0,U,40275,999,55941,.41264E-4,-.31E-6,0
ASNARO,2014-070A,2026-06-14T04:41:50.879328,15.19394157,.0005428,97.3462,241.3902,173.8996,186.2306,0,U,40298,999,64355,.28995E-3,.6073E-4,0
YAOGAN-24,2014-072A,2026-06-14T04:01:11.772768,14.76220308,.001253,98.1478,302.4799,274.4463,85.5314,0,U,40310,999,62327,.12473E-3,.811E-5,0
CBERS 4,2014-079A,2026-06-14T04:18:22.913568,14.35508064,.0001904,98.3539,222.1052,66.8655,293.2732,0,U,40336,999,60352,.25109E-4,.3E-6,0
YAOGAN-26,2014-088A,2026-06-14T03:48:29.800800,15.47245974,.0006203,97.0634,165.4387,73.9843,286.2091,0,U,40362,999,63723,.55967E-3,.2849E-3,0
SMAP,2015-003A,2026-06-14T03:21:10.708992,14.63364297,.0001298,98.1276,172.2774,95.4639,264.6712,0,U,40376,999,60717,.86124E-4,.398E-5,0
KOMPSAT-3A,2015-014A,2026-06-14T05:09:59.590656,15.53869604,.0056254,97.6880,156.3602,185.2886,174.7779,0,U,40536,999,62135,.35069E-3,.24105E-3,0
SENTINEL-2A,2015-028A,2026-06-14T04:59:04.629408,14.30813743,.0001096,98.5689,240.1014,91.2008,268.9300,0,U,40697,999,57330,-.41298E-4,-.152E-5,0
GAOFEN-8,2015-030A,2026-06-14T04:11:55.548672,15.45849083,.0008476,97.6900,358.3644,197.4865,162.6093,0,U,40701,999,61098,.30934E-3,.14944E-3,0
CARBONITE 1 (CBNT-1),2015-032D,2026-06-14T05:09:27.080928,14.83579039,.0013326,97.6501,343.4062,308.9253,51.0773,0,U,40718,999,58890,.16685E-3,.1326E-4,0
YAOGAN-27,2015-040A,2026-06-14T05:10:44.111712,13.16070194,.0007596,100.1146,151.7272,217.7841,142.2740,0,U,40878,999,51727,-.14388E-3,-.97E-6,0
GAOFEN-9 01,2015-047A,2026-06-14T05:29:02.903712,14.82878653,.0028192,97.6275,201.0577,147.1895,213.1077,0,U,40894,999,57975,.11699E-3,.903E-5,0
YAOGAN-28,2015-064A,2026-06-14T04:16:31.044576,15.27388205,.0010357,97.3067,303.5009,193.9730,166.1224,0,U,41026,999,59022,.2606E-3,.6925E-4,0
YAOGAN-29,2015-069A,2026-06-14T05:01:16.162176,14.83081198,.0002736,98.0031,193.8372,58.7945,301.3536,0,U,41038,999,57018,-.19735E-4,-.215E-5,0
KENT RIDGE 1,2015-077B,2026-06-13T16:37:26.874624,15.23112968,.0008249,14.9789,291.9825,189.0994,170.9179,0,U,41167,999,58056,.14065697E-3,.4186E-4,0
GAOFEN-4,2015-083A,2026-06-14T02:37:38.601120,1.00270299,.0004366,0.3481,83.8704,114.2838,209.3813,0,U,41194,999,3849,0,-.326E-5,0
JASON-3,2016-002A,2026-06-14T04:57:22.982400,12.87627990,.000855,66.0400,132.1015,272.9278,87.0762,0,U,41240,999,48686,-.20093E-4,-.67E-6,0
SENTINEL-3A,2016-011A,2026-06-14T04:49:24.245184,14.26739233,.0001386,98.6249,232.6274,102.6582,257.4753,0,U,41335,999,53763,.61016E-4,.104E-5,0
ZIYUAN 3-02 (ZY 3-02),2016-033A,2026-06-14T03:56:41.210304,15.21456049,.0011268,97.3842,240.9966,301.8734,58.1405,0,U,41556,999,55752,.26411E-3,.5876E-4,0
CARTOSAT-2C,2016-040A,2026-06-14T03:53:57.937632,15.19297476,.0010343,97.4494,225.1817,140.9262,219.2721,0,U,41599,999,55325,.22469E-3,.468E-4,0
SKYSAT-C1,2016-040C,2026-06-14T00:35:36.847392,15.36253137,.0003722,96.9564,196.9158,64.6595,295.5035,0,U,41601,999,55738,.2717E-3,.953E-4,0
LAPAN-A3,2016-040E,2026-06-14T04:31:47.470368,15.33087188,.001123,97.1482,161.4328,35.8255,324.3739,0,U,41603,999,55435,.10564E-3,.3307E-4,0
